{
  "type": "FeatureCollection",
  "features": [
    {
      "type": "Feature",
      "properties": {
        "norad_id": 30299,
        "name": "FENGYUN 1C DEB",
        "group": "fengyun-1c-debris",
        "lat": -27.770555958897834,
        "lon": -112.232985385496,
        "alt_km": 911.1980059090038,
        "timestamp": "2025-12-26T06:43:29.786988+00:00",
        "meta_object_name": "FENGYUN 1C DEB",
        "meta_object_id": "1999-025ZL",
        "meta_epoch": "2025-12-23T11:18:11.262816",
        "meta_mean_motion": 14.07797987,
        "meta_eccentricity": 0.01031259,
        "meta_inclination": 99.093,
        "meta_ra_of_asc_node": 69.7764,
        "meta_arg_of_pericenter": 337.5048,
        "meta_mean_anomaly": 41.8846,
        "meta_ephemeris_type": 0,
        "meta_classification_type": "U",
        "meta_norad_cat_id": 30299,
        "meta_element_set_no": 999,
        "meta_rev_at_epoch": 96441,
        "meta_bstar": 0.0013100983,
        "meta_mean_motion_dot": 2.284e-05,
        "meta_mean_motion_ddot": 0,
        "tle_line1": "1 30299U 99025ZL  25357.47096369  .00002284  00000+0  13101-2 0  9997",
        "tle_line2": "2 30299  99.0930  69.7764 0103125 337.5048  41.8846 14.07797987964410"
      },
      "geometry": {
        "type": "Point",
        "coordinates": [
          -112.232985385496,
          -27.770555958897834
        ]
      }
    },
    {
      "type": "Feature",
      "properties": {
        "norad_id": 30300,
        "name": "FENGYUN 1C DEB",
        "group": "fengyun-1c-debris",
        "lat": -51.493327328355264,
        "lon": -121.4760099428588,
        "alt_km": 758.2784823880829,
        "timestamp": "2025-12-26T06:43:29.786998+00:00",
        "meta_object_name": "FENGYUN 1C DEB",
        "meta_object_id": "1999-025ZM",
        "meta_epoch": "2025-12-22T16:31:21.679104",
        "meta_mean_motion": 14.26932196,
        "meta_eccentricity": 0.00761124,
        "meta_inclination": 99.04,
        "meta_ra_of_asc_node": 66.3568,
        "meta_arg_of_pericenter": 265.3319,
        "meta_mean_anomaly": 246.7293,
        "meta_ephemeris_type": 0,
        "meta_classification_type": "U",
        "meta_norad_cat_id": 30300,
        "meta_element_set_no": 999,
        "meta_rev_at_epoch": 97126,
        "meta_bstar": 0.0021539123,
        "meta_mean_motion_dot": 5.352e-05,
        "meta_mean_motion_ddot": 0,
        "tle_line1": "1 30300U 99025ZM  25356.68844536  .00005352  00000+0  21539-2 0  9992",
        "tle_line2": "2 30300  99.0400  66.3568 0076112 265.3319 246.7293 14.26932196971261"
      },
      "geometry": {
        "type": "Point",
        "coordinates": [
          -121.4760099428588,
          -51.493327328355264
        ]
      }
    },
    {
      "type": "Feature",
      "properties": {
        "norad_id": 30301,
        "name": "FENGYUN 1C DEB",
        "group": "fengyun-1c-debris",
        "lat": -50.94325988747791,
        "lon": -38.986161082571954,
        "alt_km": 674.2982823490129,
        "timestamp": "2025-12-26T06:43:29.787009+00:00",
        "meta_object_name": "FENGYUN 1C DEB",
        "meta_object_id": "1999-025ZN",
        "meta_epoch": "2025-12-25T03:28:42.426336",
        "meta_mean_motion": 14.53401933,
        "meta_eccentricity": 0.00693099,
        "meta_inclination": 98.6349,
        "meta_ra_of_asc_node": 150.6381,
        "meta_arg_of_pericenter": 252.2085,
        "meta_mean_anomaly": 163.052,
        "meta_ephemeris_type": 0,
        "meta_classification_type": "U",
        "meta_norad_cat_id": 30301,
        "meta_element_set_no": 999,
        "meta_rev_at_epoch": 97397,
        "meta_bstar": 0.0048942674,
        "meta_mean_motion_dot": 0.00021035,
        "meta_mean_motion_ddot": 0,
        "tle_line1": "1 30301U 99025ZN  25359.14493549  .00021035  00000+0  48943-2 0  9995",
        "tle_line2": "2 30301  98.6349 150.6381 0069309 252.2085 163.0520 14.53401933973978"
      },
      "geometry": {
        "type": "Point",
        "coordinates": [
          -38.986161082571954,
          -50.94325988747791
        ]
      }
    },
    {
      "type": "Feature",
      "properties": {
        "norad_id": 30302,
        "name": "FENGYUN 1C DEB",
        "group": "fengyun-1c-debris",
        "lat": 4.7272679389037755,
        "lon": 88.09199579756753,
        "alt_km": 859.2339030728426,
        "timestamp": "2025-12-26T06:43:29.787019+00:00",
        "meta_object_name": "FENGYUN 1C DEB",
        "meta_object_id": "1999-025ZP",
        "meta_epoch": "2025-12-25T23:06:42.620256",
        "meta_mean_motion": 14.12906665,
        "meta_eccentricity": 0.01059942,
        "meta_inclination": 98.5535,
        "meta_ra_of_asc_node": 267.0758,
        "meta_arg_of_pericenter": 79.7679,
        "meta_mean_anomaly": 281.5427,
        "meta_ephemeris_type": 0,
        "meta_classification_type": "U",
        "meta_norad_cat_id": 30302,
        "meta_element_set_no": 999,
        "meta_rev_at_epoch": 96230,
        "meta_bstar": 0.0022614317,
        "meta_mean_motion_dot": 4.402e-05,
        "meta_mean_motion_ddot": 0,
        "tle_line1": "1 30302U 99025ZP  25359.96299329  .00004402  00000+0  22614-2 0  9992",
        "tle_line2": "2 30302  98.5535 267.0758 0105994  79.7679 281.5427 14.12906665962302"
      },
      "geometry": {
        "type": "Point",
        "coordinates": [
          88.09199579756753,
          4.7272679389037755
        ]
      }
    },
    {
      "type": "Feature",
      "properties": {
        "norad_id": 30303,
        "name": "FENGYUN 1C DEB",
        "group": "fengyun-1c-debris",
        "lat": 33.68636253271969,
        "lon": 71.89843802618007,
        "alt_km": 851.5402843522015,
        "timestamp": "2025-12-26T06:43:29.787029+00:00",
        "meta_object_name": "FENGYUN 1C DEB",
        "meta_object_id": "1999-025ZQ",
        "meta_epoch": "2025-12-25T17:05:29.348736",
        "meta_mean_motion": 14.2597304,
        "meta_eccentricity": 0.0077625,
        "meta_inclination": 99.0183,
        "meta_ra_of_asc_node": 77.3908,
        "meta_arg_of_pericenter": 245.2124,
        "meta_mean_anomaly": 114.0965,
        "meta_ephemeris_type": 0,
        "meta_classification_type": "U",
        "meta_norad_cat_id": 30303,
        "meta_element_set_no": 999,
        "meta_rev_at_epoch": 97220,
        "meta_bstar": 0.0026863003,
        "meta_mean_motion_dot": 6.571e-05,
        "meta_mean_motion_ddot": 0,
        "tle_line1": "1 30303U 99025ZQ  25359.71214524  .00006571  00000+0  26863-2 0  9999",
        "tle_line2": "2 30303  99.0183  77.3908 0077625 245.2124 114.0965 14.25973040972203"
      },
      "geometry": {
        "type": "Point",
        "coordinates": [
          71.89843802618007,
          33.68636253271969
        ]
      }
    },
    {
      "type": "Feature",
      "properties": {
        "norad_id": 30304,
        "name": "FENGYUN 1C DEB",
        "group": "fengyun-1c-debris",
        "lat": 46.11966132240631,
        "lon": 63.3670435998103,
        "alt_km": 793.952975833532,
        "timestamp": "2025-12-26T06:43:29.787039+00:00",
        "meta_object_name": "FENGYUN 1C DEB",
        "meta_object_id": "1999-025ZR",
        "meta_epoch": "2025-12-23T15:44:28.497696",
        "meta_mean_motion": 14.15546458,
        "meta_eccentricity": 0.00731313,
        "meta_inclination": 99.0323,
        "meta_ra_of_asc_node": 70.2297,
        "meta_arg_of_pericenter": 17.518,
        "meta_mean_anomaly": 342.8491,
        "meta_ephemeris_type": 0,
        "meta_classification_type": "U",
        "meta_norad_cat_id": 30304,
        "meta_element_set_no": 999,
        "meta_rev_at_epoch": 96973,
        "meta_bstar": 0.0012465796,
        "meta_mean_motion_dot": 2.456e-05,
        "meta_mean_motion_ddot": 0,
        "tle_line1": "1 30304U 99025ZR  25357.65588539  .00002456  00000+0  12466-2 0  9993",
        "tle_line2": "2 30304  99.0323  70.2297 0073131  17.5180 342.8491 14.15546458969730"
      },
      "geometry": {
        "type": "Point",
        "coordinates": [
          63.3670435998103,
          46.11966132240631
        ]
      }
    },
    {
      "type": "Feature",
      "properties": {
        "norad_id": 30305,
        "name": "FENGYUN 1C DEB",
        "group": "fengyun-1c-debris",
        "lat": -40.11754425202797,
        "lon": -54.04353528543915,
        "alt_km": 1091.7603953972857,
        "timestamp": "2025-12-26T06:43:29.787049+00:00",
        "meta_object_name": "FENGYUN 1C DEB",
        "meta_object_id": "1999-025ZS",
        "meta_epoch": "2025-12-25T14:09:17.068032",
        "meta_mean_motion": 13.60237709,
        "meta_eccentricity": 0.0265867,
        "meta_inclination": 98.589,
        "meta_ra_of_asc_node": 298.0334,
        "meta_arg_of_pericenter": 67.5437,
        "meta_mean_anomaly": 115.7163,
        "meta_ephemeris_type": 0,
        "meta_classification_type": "U",
        "meta_norad_cat_id": 30305,
        "meta_element_set_no": 999,
        "meta_rev_at_epoch": 93948,
        "meta_bstar": 0.00035785,
        "meta_mean_motion_dot": 3.04e-06,
        "meta_mean_motion_ddot": 0,
        "tle_line1": "1 30305U 99025ZS  25359.58978088  .00000304  00000+0  35785-3 0  9990",
        "tle_line2": "2 30305  98.5890 298.0334 0265867  67.5437 115.7163 13.60237709939482"
      },
      "geometry": {
        "type": "Point",
        "coordinates": [
          -54.04353528543915,
          -40.11754425202797
        ]
      }
    }
  ]
}